STARLINK-36607          
1 67620U 26020D   26038.91667824 -.01745997  00000+0 -80644-2 0  9990
2 67620  42.9995 323.3196 0001651 268.7227 136.8782 15.85647501  2600
STARLINK-36615          
1 67621U 26020E   26038.91667824 -.01747528  00000+0 -81397-2 0  9999
2 67621  42.9996 323.3278 0001571 275.0896 127.3565 15.85480579  2601
STARLINK-36614          
1 67622U 26020F   26038.91667824 -.01734027  00000+0 -79510-2 0  9994
2 67622  42.9996 323.3131 0001608 261.7895 146.4772 15.85772827  2604
STARLINK-36600          
1 67623U 26020G   26038.91667824 -.01739303  00000+0 -79111-2 0  9994
2 67623  42.9995 323.3050 0001443 267.9108 143.5863 15.85948279  2601
STARLINK-36439          
1 67624U 26020H   26038.91667824 -.01729083  00000+0 -77913-2 0  9997
2 67624  42.9995 323.2968 0001758 270.2483 144.4771 15.86113881  2603
STARLINK-36438          
1 67625U 26020J   26038.91667824 -.01729045  00000+0 -77277-2 0  9999
2 67625  42.9996 323.2888 0001438 268.8409 149.0388 15.86283066  2600
STARLINK-36436          
1 67626U 26020K   26038.91667824 -.01727702  00000+0 -75912-2 0  9992
2 67626  42.9995 323.2728 0001601 271.1789 153.0730 15.86620954  2600
STARLINK-36502          
1 67627U 26020L   26038.91667824 -.01730832  00000+0 -76759-2 0  9991
2 67627  42.9996 323.2814 0001616 269.6876 151.1826 15.86440163  2600
STARLINK-36532          
1 67628U 26020M   26038.91667824 -.01726205  00000+0 -74728-2 0  9995
2 67628  42.9995 323.2583 0001529 266.0716 163.8709 15.86916846  2606
STARLINK-36367          
1 67629U 26020N   26038.91667824 -.01720161  00000+0 -74864-2 0  9992
2 67629  42.9995 323.2639 0001456 270.8563 156.7997 15.86800085  2608
STARLINK-36416          
1 67630U 26020P   26038.91667824 -.01725559  00000+0 -74268-2 0  9998
2 67630  42.9995 323.2527 0001589 263.8319 168.3887 15.87030774  2602
STARLINK-36527          
1 67631U 26020Q   26038.91667824 -.01719850  00000+0 -73478-2 0  9998
2 67631  42.9996 323.2459 0001593 273.5576 161.3764 15.87167602  2604
