CCSDS_OMM_VERS = 2.0
CREATION_DATE  = 
ORIGINATOR     = 

OBJECT_NAME    = STARLINK-36607
OBJECT_ID      = 2026-020D
CENTER_NAME    = EARTH
REF_FRAME      = TEME
TIME_SYSTEM    = UTC
MEAN_ELEMENT_THEORY = SGP/SGP4

EPOCH          = 2026-02-07T22:00:00.999936
MEAN_MOTION    = 15.85647501
ECCENTRICITY   = .0001651
INCLINATION    = 42.9995
RA_OF_ASC_NODE = 323.3196
ARG_OF_PERICENTER = 268.7227
MEAN_ANOMALY   = 136.8782

EPHEMERIS_TYPE = 0
CLASSIFICATION_TYPE = U
NORAD_CAT_ID   = 67620
ELEMENT_SET_NO = 999
REV_AT_EPOCH   = 260
BSTAR          = -.80643554E-2
MEAN_MOTION_DOT = -.1745997E-1
MEAN_MOTION_DDOT = 0

CCSDS_OMM_VERS = 2.0
CREATION_DATE  = 
ORIGINATOR     = 

OBJECT_NAME    = STARLINK-36615
OBJECT_ID      = 2026-020E
CENTER_NAME    = EARTH
REF_FRAME      = TEME
TIME_SYSTEM    = UTC
MEAN_ELEMENT_THEORY = SGP/SGP4

EPOCH          = 2026-02-07T22:00:00.999936
MEAN_MOTION    = 15.85480579
ECCENTRICITY   = .00015717
INCLINATION    = 42.9996
RA_OF_ASC_NODE = 323.3278
ARG_OF_PERICENTER = 275.0896
MEAN_ANOMALY   = 127.3565

EPHEMERIS_TYPE = 0
CLASSIFICATION_TYPE = U
NORAD_CAT_ID   = 67621
ELEMENT_SET_NO = 999
REV_AT_EPOCH   = 260
BSTAR          = -.81397062E-2
MEAN_MOTION_DOT = -.1747528E-1
MEAN_MOTION_DDOT = 0

CCSDS_OMM_VERS = 2.0
CREATION_DATE  = 
ORIGINATOR     = 

OBJECT_NAME    = STARLINK-36614
OBJECT_ID      = 2026-020F
CENTER_NAME    = EARTH
REF_FRAME      = TEME
TIME_SYSTEM    = UTC
MEAN_ELEMENT_THEORY = SGP/SGP4

EPOCH          = 2026-02-07T22:00:00.999936
MEAN_MOTION    = 15.85772827
ECCENTRICITY   = .00016083
INCLINATION    = 42.9996
RA_OF_ASC_NODE = 323.3131
ARG_OF_PERICENTER = 261.7895
MEAN_ANOMALY   = 146.4772

EPHEMERIS_TYPE = 0
CLASSIFICATION_TYPE = U
NORAD_CAT_ID   = 67622
ELEMENT_SET_NO = 999
REV_AT_EPOCH   = 260
BSTAR          = -.79509639E-2
MEAN_MOTION_DOT = -.1734027E-1
MEAN_MOTION_DDOT = 0

CCSDS_OMM_VERS = 2.0
CREATION_DATE  = 
ORIGINATOR     = 

OBJECT_NAME    = STARLINK-36600
OBJECT_ID      = 2026-020G
CENTER_NAME    = EARTH
REF_FRAME      = TEME
TIME_SYSTEM    = UTC
MEAN_ELEMENT_THEORY = SGP/SGP4

EPOCH          = 2026-02-07T22:00:00.999936
MEAN_MOTION    = 15.85948279
ECCENTRICITY   = .0001443
INCLINATION    = 42.9995
RA_OF_ASC_NODE = 323.3050
ARG_OF_PERICENTER = 267.9108
MEAN_ANOMALY   = 143.5863

EPHEMERIS_TYPE = 0
CLASSIFICATION_TYPE = U
NORAD_CAT_ID   = 67623
ELEMENT_SET_NO = 999
REV_AT_EPOCH   = 260
BSTAR          = -.79111388E-2
MEAN_MOTION_DOT = -.1739303E-1
MEAN_MOTION_DDOT = 0

CCSDS_OMM_VERS = 2.0
CREATION_DATE  = 
ORIGINATOR     = 

OBJECT_NAME    = STARLINK-36439
OBJECT_ID      = 2026-020H
CENTER_NAME    = EARTH
REF_FRAME      = TEME
TIME_SYSTEM    = UTC
MEAN_ELEMENT_THEORY = SGP/SGP4

EPOCH          = 2026-02-07T22:00:00.999936
MEAN_MOTION    = 15.86113881
ECCENTRICITY   = .00017585
INCLINATION    = 42.9995
RA_OF_ASC_NODE = 323.2968
ARG_OF_PERICENTER = 270.2483
MEAN_ANOMALY   = 144.4771

EPHEMERIS_TYPE = 0
CLASSIFICATION_TYPE = U
NORAD_CAT_ID   = 67624
ELEMENT_SET_NO = 999
REV_AT_EPOCH   = 260
BSTAR          = -.77912595E-2
MEAN_MOTION_DOT = -.1729083E-1
MEAN_MOTION_DDOT = 0

CCSDS_OMM_VERS = 2.0
CREATION_DATE  = 
ORIGINATOR     = 

OBJECT_NAME    = STARLINK-36438
OBJECT_ID      = 2026-020J
CENTER_NAME    = EARTH
REF_FRAME      = TEME
TIME_SYSTEM    = UTC
MEAN_ELEMENT_THEORY = SGP/SGP4

EPOCH          = 2026-02-07T22:00:00.999936
MEAN_MOTION    = 15.86283066
ECCENTRICITY   = .00014381
INCLINATION    = 42.9996
RA_OF_ASC_NODE = 323.2888
ARG_OF_PERICENTER = 268.8409
MEAN_ANOMALY   = 149.0388

EPHEMERIS_TYPE = 0
CLASSIFICATION_TYPE = U
NORAD_CAT_ID   = 67625
ELEMENT_SET_NO = 999
REV_AT_EPOCH   = 260
BSTAR          = -.7727685E-2
MEAN_MOTION_DOT = -.1729045E-1
MEAN_MOTION_DDOT = 0

CCSDS_OMM_VERS = 2.0
CREATION_DATE  = 
ORIGINATOR     = 

OBJECT_NAME    = STARLINK-36436
OBJECT_ID      = 2026-020K
CENTER_NAME    = EARTH
REF_FRAME      = TEME
TIME_SYSTEM    = UTC
MEAN_ELEMENT_THEORY = SGP/SGP4

EPOCH          = 2026-02-07T22:00:00.999936
MEAN_MOTION    = 15.86620954
ECCENTRICITY   = .00016014
INCLINATION    = 42.9995
RA_OF_ASC_NODE = 323.2728
ARG_OF_PERICENTER = 271.1789
MEAN_ANOMALY   = 153.0730

EPHEMERIS_TYPE = 0
CLASSIFICATION_TYPE = U
NORAD_CAT_ID   = 67626
ELEMENT_SET_NO = 999
REV_AT_EPOCH   = 260
BSTAR          = -.759123E-2
MEAN_MOTION_DOT = -.1727702E-1
MEAN_MOTION_DDOT = 0

CCSDS_OMM_VERS = 2.0
CREATION_DATE  = 
ORIGINATOR     = 

OBJECT_NAME    = STARLINK-36502
OBJECT_ID      = 2026-020L
CENTER_NAME    = EARTH
REF_FRAME      = TEME
TIME_SYSTEM    = UTC
MEAN_ELEMENT_THEORY = SGP/SGP4

EPOCH          = 2026-02-07T22:00:00.999936
MEAN_MOTION    = 15.86440163
ECCENTRICITY   = .00016167
INCLINATION    = 42.9996
RA_OF_ASC_NODE = 323.2814
ARG_OF_PERICENTER = 269.6876
MEAN_ANOMALY   = 151.1826

EPHEMERIS_TYPE = 0
CLASSIFICATION_TYPE = U
NORAD_CAT_ID   = 67627
ELEMENT_SET_NO = 999
REV_AT_EPOCH   = 260
BSTAR          = -.76758805E-2
MEAN_MOTION_DOT = -.1730832E-1
MEAN_MOTION_DDOT = 0

CCSDS_OMM_VERS = 2.0
CREATION_DATE  = 
ORIGINATOR     = 

OBJECT_NAME    = STARLINK-36532
OBJECT_ID      = 2026-020M
CENTER_NAME    = EARTH
REF_FRAME      = TEME
TIME_SYSTEM    = UTC
MEAN_ELEMENT_THEORY = SGP/SGP4

EPOCH          = 2026-02-07T22:00:00.999936
MEAN_MOTION    = 15.86916846
ECCENTRICITY   = .00015293
INCLINATION    = 42.9995
RA_OF_ASC_NODE = 323.2583
ARG_OF_PERICENTER = 266.0716
MEAN_ANOMALY   = 163.8709

EPHEMERIS_TYPE = 0
CLASSIFICATION_TYPE = U
NORAD_CAT_ID   = 67628
ELEMENT_SET_NO = 999
REV_AT_EPOCH   = 260
BSTAR          = -.74728304E-2
MEAN_MOTION_DOT = -.1726205E-1
MEAN_MOTION_DDOT = 0

CCSDS_OMM_VERS = 2.0
CREATION_DATE  = 
ORIGINATOR     = 

OBJECT_NAME    = STARLINK-36367
OBJECT_ID      = 2026-020N
CENTER_NAME    = EARTH
REF_FRAME      = TEME
TIME_SYSTEM    = UTC
MEAN_ELEMENT_THEORY = SGP/SGP4

EPOCH          = 2026-02-07T22:00:00.999936
MEAN_MOTION    = 15.86800085
ECCENTRICITY   = .0001456
INCLINATION    = 42.9995
RA_OF_ASC_NODE = 323.2639
ARG_OF_PERICENTER = 270.8563
MEAN_ANOMALY   = 156.7997

EPHEMERIS_TYPE = 0
CLASSIFICATION_TYPE = U
NORAD_CAT_ID   = 67629
ELEMENT_SET_NO = 999
REV_AT_EPOCH   = 260
BSTAR          = -.74863796E-2
MEAN_MOTION_DOT = -.1720161E-1
MEAN_MOTION_DDOT = 0

CCSDS_OMM_VERS = 2.0
CREATION_DATE  = 
ORIGINATOR     = 

OBJECT_NAME    = STARLINK-36416
OBJECT_ID      = 2026-020P
CENTER_NAME    = EARTH
REF_FRAME      = TEME
TIME_SYSTEM    = UTC
MEAN_ELEMENT_THEORY = SGP/SGP4

EPOCH          = 2026-02-07T22:00:00.999936
MEAN_MOTION    = 15.87030774
ECCENTRICITY   = .00015896
INCLINATION    = 42.9995
RA_OF_ASC_NODE = 323.2527
ARG_OF_PERICENTER = 263.8319
MEAN_ANOMALY   = 168.3887

EPHEMERIS_TYPE = 0
CLASSIFICATION_TYPE = U
NORAD_CAT_ID   = 67630
ELEMENT_SET_NO = 999
REV_AT_EPOCH   = 260
BSTAR          = -.7426844E-2
MEAN_MOTION_DOT = -.1725559E-1
MEAN_MOTION_DDOT = 0

CCSDS_OMM_VERS = 2.0
CREATION_DATE  = 
ORIGINATOR     = 

OBJECT_NAME    = STARLINK-36527
OBJECT_ID      = 2026-020Q
CENTER_NAME    = EARTH
REF_FRAME      = TEME
TIME_SYSTEM    = UTC
MEAN_ELEMENT_THEORY = SGP/SGP4

EPOCH          = 2026-02-07T22:00:00.999936
MEAN_MOTION    = 15.87167602
ECCENTRICITY   = .00015933
INCLINATION    = 42.9996
RA_OF_ASC_NODE = 323.2459
ARG_OF_PERICENTER = 273.5576
MEAN_ANOMALY   = 161.3764

EPHEMERIS_TYPE = 0
CLASSIFICATION_TYPE = U
NORAD_CAT_ID   = 67631
ELEMENT_SET_NO = 999
REV_AT_EPOCH   = 260
BSTAR          = -.73478229E-2
MEAN_MOTION_DOT = -.171985E-1
MEAN_MOTION_DDOT = 0

